{"result":"*******************************************************************************
 Revised: April 12, 2021             Mercury                            199 / 1

 PHYSICAL DATA (updated 2024-Mar-04):
  Vol. Mean Radius (km) =  2439.4+-0.1    Density (g cm^-3)     = 5.427
  Mass x10^23 (kg)      =     3.302       Volume (x10^10 km^3)  = 6.085  
  Sidereal rot. period  =    58.6463 d    Sid. rot. rate (rad/s)= 0.00000124001
  Mean solar day        =   175.9421 d    Core radius (km)      = ~1600 
  Geometric Albedo      =     0.106       Surface emissivity    = 0.77+-0.06
  GM (km^3/s^2)         = 22031.86855     Equatorial radius, Re = 2440.53 km
  GM 1-sigma (km^3/s^2) =                 Mass ratio (Sun/plnt) = 6023682
  Mom. of Inertia       =     0.33        Equ. gravity  m/s^2   = 3.701     
  Atmos. pressure (bar) = < 5x10^-15      Max. angular diam.    = 11.0\"   
  Mean Temperature (K)  = 440             Visual mag. V(1,0)    = -0.42 
  Obliquity to orbit[1] =  2.11' +/- 0.1' Hill's sphere rad. Rp = 94.4 
  Sidereal orb. per.    =  0.2408467 y    Mean Orbit vel.  km/s = 47.362 
  Sidereal orb. per.    = 87.969257  d    Escape vel. km/s      =  4.435
                                 Perihelion  Aphelion    Mean
  Solar Constant (W/m^2)         14462       6278        9126
  Maximum Planetary IR (W/m^2)   12700       5500        8000
  Minimum Planetary IR (W/m^2)   6           6           6
*******************************************************************************


*******************************************************************************
Ephemeris / API_USER Sat Sep 20 11:17:48 2025 Pasadena, USA      / Horizons
*******************************************************************************
Target body name: Mercury (199)                   {source: DE441}
Center body name: Sun (10)                        {source: DE441}
Center-site name: BODY CENTER
*******************************************************************************
Start time      : A.D. 1999-Dec-31 00:00:00.0000 TDB
Stop  time      : A.D. 2000-Jan-02 00:00:00.0000 TDB
Step-size       : 60 minutes
*******************************************************************************
Center geodetic : 0.0, 0.0, 0.0                   {E-lon(deg),Lat(deg),Alt(km)}
Center cylindric: 0.0, 0.0, 0.0                   {E-lon(deg),Dxy(km),Dz(km)}
Center radii    : 695700.0, 695700.0, 695700.0 km {Equator_a, b, pole_c}
Output units    : KM-S
Calendar mode   : Mixed Julian/Gregorian
Output type     : GEOMETRIC cartesian states
Output format   : 3 (position, velocity, LT, range, range-rate)
Reference frame : Ecliptic of J2000.0
*******************************************************************************
            JDTDB,            Calendar Date (TDB),                      X,                      Y,                      Z,                     VX,                     VY,                     VZ,                     LT,                     RG,                     RR,
**************************************************************************************************************************************************************************************************************************************************************************
$$SOE
2451543.500000000, A.D. 1999-Dec-31 00:00:00.0000, -2.418713639947869E+07, -6.524828882980004E+07, -3.110117018048033E+06,  3.588702998002199E+01, -1.451878320566109E+01, -4.479952332538007E+00,  2.323491122343687E+02,  6.965651147085926E+07,  1.338775729383687E+00,
2451543.541666667, A.D. 1999-Dec-31 01:00:00.0000, -2.405788166151320E+07, -6.530039039263949E+07, -3.126236919621535E+06,  3.592112615844284E+01, -1.442652037680840E+01, -4.475544895480699E+00,  2.323650681706557E+02,  6.966129494021842E+07,  1.318706810020723E+00,
2451543.583333333, A.D. 1999-Dec-31 02:00:00.0000, -2.392850451879715E+07, -6.535215971107350E+07, -3.142340915053878E+06,  3.595503262080034E+01, -1.433420301496647E+01, -4.471115590411626E+00,  2.323807830974963E+02,  6.966600615676326E+07,  1.298635283854624E+00,
2451543.625000000, A.D. 1999-Dec-31 03:00:00.0000, -2.379900565429182E+07, -6.540359658915609E+07, -3.158428925652184E+06,  3.598874937615369E+01, -1.424183132714781E+01, -4.466664435073255E+00,  2.323962569838348E+02,  6.967064511118352E+07,  1.278561192140114E+00,
2451543.666666667, A.D. 1999-Dec-31 04:00:00.0000, -2.366938575092723E+07, -6.545470083168563E+07, -3.174500872787248E+06,  3.602227643282198E+01, -1.414940551986139E+01, -4.462191447098986E+00,  2.324114897991111E+02,  6.967521179431742E+07,  1.258484576063266E+00,
2451543.708333333, A.D. 1999-Dec-31 05:00:00.0000, -2.353964549160479E+07, -6.550547224420297E+07, -3.190556677893165E+06,  3.605561379838284E+01, -1.405692579911779E+01, -4.457696644013446E+00,  2.324264815132584E+02,  6.967970619715130E+07,  1.238405476742551E+00,
2451543.750000000, A.D. 1999-Dec-31 06:00:00.0000, -2.340978555919997E+07, -6.555591063298976E+07, -3.206596262466915E+06,  3.608876147967103E+01, -1.396439237043438E+01, -4.453180043232791E+00,  2.324412320967039E+02,  6.968412831081936E+07,  1.218323935229974E+00,
2451543.791666667, A.D. 1999-Dec-31 07:00:00.0000, -2.327980663656496E+07, -6.560601580506662E+07, -3.222619548067983E+06,  3.612171948277704E+01, -1.387180543884047E+01, -4.448641662064996E+00,  2.324557415203671E+02,  6.968847812660350E+07,  1.198239992512180E+00,
2451543.833333333, A.D. 1999-Dec-31 08:00:00.0000, -2.314970940653135E+07, -6.565578756819139E+07, -3.238626456317965E+06,  3.615448781304579E+01, -1.377916520888243E+01, -4.444081517710142E+00,  2.324700097556594E+02,  6.969275563593310E+07,  1.178153689511510E+00,
2451543.875000000, A.D. 1999-Dec-31 09:00:00.0000, -2.301949455191288E+07, -6.570522573085743E+07, -3.254616908900186E+06,  3.618706647507515E+01, -1.368647188462882E+01, -4.439499627260722E+00,  2.324840367744831E+02,  6.969696083038469E+07,  1.158065067087115E+00,
2451543.916666667, A.D. 1999-Dec-31 10:00:00.0000, -2.288916275550805E+07, -6.575433010229190E+07, -3.270590827559315E+06,  3.621945547271466E+01, -1.359372566967557E+01, -4.434896007701923E+00,  2.324978225492310E+02,  6.970109370168178E+07,  1.137974166036064E+00,
2451543.958333333, A.D. 1999-Dec-31 11:00:00.0000, -2.275871470010285E+07, -6.580310049245404E+07, -3.286548134100966E+06,  3.625165480906419E+01, -1.350092676715103E+01, -4.430270675911931E+00,  2.325113670527851E+02,  6.970515424169467E+07,  1.117881027094394E+00,
2451544.000000000, A.D. 1999-Dec-31 12:00:00.0000, -2.262815106847349E+07, -6.585153671203353E+07, -3.302488750391334E+06,  3.628366448647250E+01, -1.340807537972114E+01, -4.425623648662216E+00,  2.325246702585166E+02,  6.970914244244020E+07,  1.097785690938238E+00,
2451544.041666667, A.D. 1999-Dec-31 13:00:00.0000, -2.249747254338904E+07, -6.589963857244880E+07, -3.318412598356787E+06,  3.631548450653592E+01, -1.331517170959452E+01, -4.420954942617834E+00,  2.325377321402846E+02,  6.971305829608151E+07,  1.077688198184900E+00,
2451544.083333333, A.D. 1999-Dec-31 14:00:00.0000, -2.236667980761420E+07, -6.594740588584549E+07, -3.334319599983510E+06,  3.634711487009708E+01, -1.322221595852756E+01, -4.416264574337704E+00,  2.325505526724354E+02,  6.971690179492788E+07,  1.057588589393937E+00,
2451544.125000000, A.D. 1999-Dec-31 15:00:00.0000, -2.223577354391201E+07, -6.599483846509466E+07, -3.350209677317083E+06,  3.637855557724351E+01, -1.312920832782956E+01, -4.411552560274925E+00,  2.325631318298024E+02,  6.972067293143451E+07,  1.037486905068244E+00,
2451544.166666667, A.D. 1999-Dec-31 16:00:00.0000, -2.210475443504652E+07, -6.604193612379136E+07, -3.366082752462171E+06,  3.640980662730631E+01, -1.303614901836776E+01, -4.406818916777060E+00,  2.325754695877048E+02,  6.972437169820228E+07,  1.017383185655151E+00,
2451544.208333333, A.D. 1999-Dec-31 17:00:00.0000, -2.197362316378558E+07, -6.608869867625293E+07, -3.381938747582048E+06,  3.644086801885886E+01, -1.294303823057247E+01, -4.402063660086420E+00,  2.325875659219473E+02,  6.972799808797760E+07,  9.972774715474693E-01,
2451544.250000000, A.D. 1999-Dec-31 18:00:00.0000, -2.184238041290354E+07, -6.613512593751750E+07, -3.397777584898330E+06,  3.647173974971547E+01, -1.284987616444217E+01, -4.397286806340372E+00,  2.325994208088190E+02,  6.973155209365219E+07,  9.771698030846225E-01,
2451544.291666667, A.D. 1999-Dec-31 19:00:00.0000, -2.171102686518397E+07, -6.618121772334242E+07, -3.413599186690480E+06,  3.650242181693009E+01, -1.275666301954850E+01, -4.392488371571631E+00,  2.326110342250936E+02,  6.973503370826294E+07,  9.570602205536732E-01,
2451544.333333333, A.D. 1999-Dec-31 20:00:00.0000, -2.157956320342243E+07, -6.622697385020273E+07, -3.429403475295532E+06,  3.653291421679498E+01, -1.266339899504144E+01, -4.387668371708543E+00,  2.326224061480279E+02,  6.973844292499158E+07,  9.369487641904551E-01,
2451544.375000000, A.D. 1999-Dec-31 21:00:00.0000, -2.144799011042920E+07, -6.627239413528967E+07, -3.445190373107661E+06,  3.656321694483943E+01, -1.257008428965428E+01, -4.382826822575394E+00,  2.326335365553616E+02,  6.974177973716472E+07,  9.168354741806033E-01,
2451544.416666667, A.D. 1999-Dec-31 22:00:00.0000, -2.131630826903202E+07, -6.631747839650919E+07, -3.460959802577823E+06,  3.659332999582843E+01, -1.247671910170874E+01, -4.377963739892692E+00,  2.326444254253170E+02,  6.974504413825348E+07,  8.967203906606628E-01,
2451544.458333333, A.D. 1999-Dec-31 23:00:00.0000, -2.118451836207887E+07, -6.636222645248042E+07, -3.476711686213378E+06,  3.662325336376142E+01, -1.238330362912000E+01, -4.373079139277477E+00,  2.326550727365976E+02,  6.974823612187338E+07,  8.766035537191351E-01,
2451544.500000000, A.D. 2000-Jan-01 00:00:00.0000, -2.105262107244070E+07, -6.640663812253430E+07, -3.492445946577720E+06,  3.665298704187096E+01, -1.228983806940175E+01, -4.368173036243590E+00,  2.326654784683882E+02,  6.975135568178420E+07,  8.564850033975758E-01,
